{
  "type": "FeatureCollection",
  "features": [
    {
      "type": "Feature",
      "geometry": {
        "type": "Point",
        "coordinates": [
          12.6927,
          52.4302
        ]
      },
      "properties": {
        "site_name": "Site A",
        "eco_points_per_m2": 420,
        "country_code": null,
        "source_date": "2026-09-07T00:00:00",
        "uncertainty": "verified"
      }
    },
    {
      "type": "Feature",
      "geometry": {
        "type": "Point",
        "coordinates": [
          6.5758,
          49.6937
        ]
      },
      "properties": {
        "site_name": "Site B",
        "eco_points_per_m2": 210,
        "country_code": null,
        "source_date": null,
        "uncertainty": "verified"
      }
    },
    {
      "type": "Feature",
      "geometry": {
        "type": "Point",
        "coordinates": [
          6.8666,
          45.1584
        ]
      },
      "properties": {
        "site_name": "Site C",
        "eco_points_per_m2": 372,
        "country_code": null,
        "source_date": "2026-09-11T00:00:00",
        "uncertainty": "verified"
      }
    },
    {
      "type": "Feature",
      "geometry": {
        "type": "Point",
        "coordinates": [
          12.781,
          47.4602
        ]
      },
      "properties": {
        "site_name": "Site D",
        "eco_points_per_m2": 433,
        "country_code": "ES",
        "source_date": "2026-09-21T00:00:00",
        "uncertainty": "verified"
      }
    },
    {
      "type": "Feature",
      "geometry": null,
      "properties": {
        "site_name": "Site E",
        "eco_points_per_m2": 389,
        "country_code": "FR",
        "source_date": "2026-09-15T00:00:00",
        "uncertainty": null
      }
    },
    {
      "type": "Feature",
      "geometry": {
        "type": "Point",
        "coordinates": [
          8.3403,
          51.3862
        ]
      },
      "properties": {
        "site_name": "Site F",
        "eco_points_per_m2": 493,
        "country_code": "IT",
        "source_date": "2026-09-04T00:00:00",
        "uncertainty": "preliminary"
      }
    },
    {
      "type": "Feature",
      "geometry": {
        "type": "Point",
        "coordinates": [
          5.3841,
          53.7193
        ]
      },
      "properties": {
        "site_name": "Site G",
        "eco_points_per_m2": 409,
        "country_code": "ES",
        "source_date": null,
        "uncertainty": "preliminary"
      }
    },
    {
      "type": "Feature",
      "geometry": {
        "type": "Point",
        "coordinates": [
          14.7835,
          50.4696
        ]
      },
      "properties": {
        "site_name": "Site H",
        "eco_points_per_m2": 229,
        "country_code": "DE",
        "source_date": "2026-09-08T00:00:00",
        "uncertainty": "verified"
      }
    },
    {
      "type": "Feature",
      "geometry": {
        "type": "Point",
        "coordinates": [
          9.9296,
          52.2541
        ]
      },
      "properties": {
        "site_name": "Site I",
        "eco_points_per_m2": null,
        "country_code": "IT",
        "source_date": "2026-09-20T00:00:00",
        "uncertainty": null
      }
    },
    {
      "type": "Feature",
      "geometry": null,
      "properties": {
        "site_name": "Site J",
        "eco_points_per_m2": 230,
        "country_code": "IT",
        "source_date": "2026-09-14T00:00:00",
        "uncertainty": null
      }
    },
    {
      "type": "Feature",
      "geometry": null,
      "properties": {
        "site_name": "Site K",
        "eco_points_per_m2": 348,
        "country_code": "FR",
        "source_date": "2026-09-06T00:00:00",
        "uncertainty": null
      }
    },
    {
      "type": "Feature",
      "geometry": {
        "type": "Point",
        "coordinates": [
          5.1732,
          47.999
        ]
      },
      "properties": {
        "site_name": "Site L",
        "eco_points_per_m2": 226,
        "country_code": "IT",
        "source_date": "2026-09-09T00:00:00",
        "uncertainty": "preliminary"
      }
    },
    {
      "type": "Feature",
      "geometry": {
        "type": "Point",
        "coordinates": [
          5.2374,
          54.9616
        ]
      },
      "properties": {
        "site_name": "Site M",
        "eco_points_per_m2": 474,
        "country_code": "NL",
        "source_date": "2026-09-08T00:00:00",
        "uncertainty": "preliminary"
      }
    },
    {
      "type": "Feature",
      "geometry": null,
      "properties": {
        "site_name": "Site N",
        "eco_points_per_m2": 121,
        "country_code": "FR",
        "source_date": "2026-09-05T00:00:00",
        "uncertainty": "preliminary"
      }
    },
    {
      "type": "Feature",
      "geometry": null,
      "properties": {
        "site_name": "Site O",
        "eco_points_per_m2": 66,
        "country_code": "DE",
        "source_date": "2026-09-08T00:00:00",
        "uncertainty": "preliminary"
      }
    },
    {
      "type": "Feature",
      "geometry": null,
      "properties": {
        "site_name": "Site P",
        "eco_points_per_m2": 54,
        "country_code": null,
        "source_date": null,
        "uncertainty": "preliminary"
      }
    },
    {
      "type": "Feature",
      "geometry": null,
      "properties": {
        "site_name": "Site Q",
        "eco_points_per_m2": 437,
        "country_code": "FR",
        "source_date": "2026-09-02T00:00:00",
        "uncertainty": "preliminary"
      }
    },
    {
      "type": "Feature",
      "geometry": {
        "type": "Point",
        "coordinates": [
          12.8202,
          47.3501
        ]
      },
      "properties": {
        "site_name": "Site R",
        "eco_points_per_m2": 203,
        "country_code": "FR",
        "source_date": "2026-09-03T00:00:00",
        "uncertainty": "preliminary"
      }
    },
    {
      "type": "Feature",
      "geometry": {
        "type": "Point",
        "coordinates": [
          12.9282,
          48.3064
        ]
      },
      "properties": {
        "site_name": "Site S",
        "eco_points_per_m2": 276,
        "country_code": "ES",
        "source_date": "2026-09-10T00:00:00",
        "uncertainty": null
      }
    },
    {
      "type": "Feature",
      "geometry": {
        "type": "Point",
        "coordinates": [
          10.5462,
          49.1704
        ]
      },
      "properties": {
        "site_name": "Site T",
        "eco_points_per_m2": 453,
        "country_code": "ES",
        "source_date": null,
        "uncertainty": "preliminary"
      }
    },
    {
      "type": "Feature",
      "geometry": null,
      "properties": {
        "site_name": "Site U",
        "eco_points_per_m2": 319,
        "country_code": "DE",
        "source_date": "2026-09-17T00:00:00",
        "uncertainty": null
      }
    },
    {
      "type": "Feature",
      "geometry": {
        "type": "Point",
        "coordinates": [
          13.8192,
          51.5569
        ]
      },
      "properties": {
        "site_name": "Site V",
        "eco_points_per_m2": 271,
        "country_code": "ES",
        "source_date": "2026-09-13T00:00:00",
        "uncertainty": null
      }
    },
    {
      "type": "Feature",
      "geometry": null,
      "properties": {
        "site_name": "Site W",
        "eco_points_per_m2": 186,
        "country_code": "IT",
        "source_date": "2026-09-11T00:00:00",
        "uncertainty": "preliminary"
      }
    },
    {
      "type": "Feature",
      "geometry": null,
      "properties": {
        "site_name": "Site X",
        "eco_points_per_m2": 448,
        "country_code": "DE",
        "source_date": "2026-09-09T00:00:00",
        "uncertainty": null
      }
    },
    {
      "type": "Feature",
      "geometry": {
        "type": "Point",
        "coordinates": [
          8.4709,
          54.8044
        ]
      },
      "properties": {
        "site_name": "Site Y",
        "eco_points_per_m2": 180,
        "country_code": "NL",
        "source_date": "2026-09-16T00:00:00",
        "uncertainty": "preliminary"
      }
    },
    {
      "type": "Feature",
      "geometry": {
        "type": "Point",
        "coordinates": [
          12.7588,
          52.5055
        ]
      },
      "properties": {
        "site_name": "Site Z",
        "eco_points_per_m2": 212,
        "country_code": "ES",
        "source_date": "2026-09-10T00:00:00",
        "uncertainty": null
      }
    }
  ]
}